{"type": "FeatureCollection", "features": [ {"type": "Feature", "properties": {"norad_id": 28659, "name": "DIRECTV 8", "group": "intelsat", "lat": -0.01340383964344482, "lon": -165.72156942425798, "alt_km": 35780.808157154715, "timestamp": "2025-12-08T15:42:49.446071+00:00", "meta": {"OBJECT_NAME": "DIRECTV 8", "OBJECT_ID": "2005-019A", "EPOCH": "2025-12-08T05:50:38.546880", "MEAN_MOTION": 1.00271579, "ECCENTRICITY": 0.00032192, "INCLINATION": 0.0167, "RA_OF_ASC_NODE": 0.7115, "ARG_OF_PERICENTER": 260.6499, "MEAN_ANOMALY": 144.5052, "EPHEMERIS_TYPE": 0, "CLASSIFICATION_TYPE": "U", "NORAD_CAT_ID": 28659, "ELEMENT_SET_NO": 999, "REV_AT_EPOCH": 7515, "BSTAR": 0, "MEAN_MOTION_DOT": 4e-08, "MEAN_MOTION_DDOT": 0}, "tle": {"line1": "1 28659U 05019A   25342.24350170  .00000004  00000+0  00000+0 0  9995", "line2": "2 28659   0.0167   0.7115 0003219 260.6499 144.5052  1.00271579 75152"}}, "geometry": {"type": "Point", "coordinates": [-165.72156942425798, -0.01340383964344482]}}, {"type": "Feature", "properties": {"norad_id": 28702, "name": "GALAXY 28 (G-28)", "group": "intelsat", "lat": 1.6576864907312319, "lon": -135.30460398475986, "alt_km": 35776.692657974236, "timestamp": "2025-12-08T15:42:49.446083+00:00", "meta": {"OBJECT_NAME": "GALAXY 28 (G-28)", "OBJECT_ID": "2005-022A", "EPOCH": "2025-12-08T06:07:07.800960", "MEAN_MOTION": 1.00271364, "ECCENTRICITY": 0.00026645, "INCLINATION": 2.8072, "RA_OF_ASC_NODE": 81.3344, "ARG_OF_PERICENTER": 177.658, "MEAN_ANOMALY": 181.3705, "EPHEMERIS_TYPE": 0, "CLASSIFICATION_TYPE": "U", "NORAD_CAT_ID": 28702, "ELEMENT_SET_NO": 999, "REV_AT_EPOCH": 5005, "BSTAR": 0, "MEAN_MOTION_DOT": -1.85e-06, "MEAN_MOTION_DDOT": 0}, "tle": {"line1": "1 28702U 05022A   25342.25495140 -.00000185  00000+0  00000+0 0  9997", "line2": "2 28702   2.8072  81.3344 0002664 177.6580 181.3705  1.00271364 50054"}}, "geometry": {"type": "Point", "coordinates": [-135.30460398475986, 1.6576864907312319]}}, {"type": "Feature", "properties": {"norad_id": 29236, "name": "GALAXY 16 (G-16)", "group": "intelsat", "lat": 2.4689339743481656e-05, "lon": -145.6725933385994, "alt_km": 35775.430183930286, "timestamp": "2025-12-08T15:42:49.446095+00:00", "meta": {"OBJECT_NAME": "GALAXY 16 (G-16)", "OBJECT_ID": "2006-023A", "EPOCH": "2025-12-08T06:03:54.608832", "MEAN_MOTION": 1.00273466, "ECCENTRICITY": 0.00029586, "INCLINATION": 0.0218, "RA_OF_ASC_NODE": 153.6673, "ARG_OF_PERICENTER": 96.1223, "MEAN_ANOMALY": 179.435, "EPHEMERIS_TYPE": 0, "CLASSIFICATION_TYPE": "U", "NORAD_CAT_ID": 29236, "ELEMENT_SET_NO": 999, "REV_AT_EPOCH": 7105, "BSTAR": 0, "MEAN_MOTION_DOT": -1.24e-06, "MEAN_MOTION_DDOT": 0}, "tle": {"line1": "1 29236U 06023A   25342.25271538 -.00000124  00000+0  00000+0 0  9998", "line2": "2 29236   0.0218 153.6673 0002958  96.1223 179.4350  1.00273466 71054"}}, "geometry": {"type": "Point", "coordinates": [-145.6725933385994, 2.4689339743481656e-05]}}, {"type": "Feature", "properties": {"norad_id": 29494, "name": "DIRECTV 9S", "group": "intelsat", "lat": 1.485658329520011, "lon": -147.862535537083, "alt_km": 35777.057434460134, "timestamp": "2025-12-08T15:42:49.446107+00:00", "meta": {"OBJECT_NAME": "DIRECTV 9S", "OBJECT_ID": "2006-043A", "EPOCH": "2025-12-08T06:00:20.118240", "MEAN_MOTION": 1.00270613, "ECCENTRICITY": 0.00032124, "INCLINATION": 1.9284, "RA_OF_ASC_NODE": 83.2534, "ARG_OF_PERICENTER": 176.5091, "MEAN_ANOMALY": 166.3686, "EPHEMERIS_TYPE": 0, "CLASSIFICATION_TYPE": "U", "NORAD_CAT_ID": 29494, "ELEMENT_SET_NO": 999, "REV_AT_EPOCH": 4946, "BSTAR": 0, "MEAN_MOTION_DOT": -1.11e-06, "MEAN_MOTION_DDOT": 0}, "tle": {"line1": "1 29494U 06043A   25342.25023285 -.00000111  00000+0  00000+0 0  9996", "line2": "2 29494   1.9284  83.2534 0003212 176.5091 166.3686  1.00270613 49465"}}, "geometry": {"type": "Point", "coordinates": [-147.862535537083, 1.485658329520011]}}, {"type": "Feature", "properties": {"norad_id": 31307, "name": "GALAXY 17 (G-17)", "group": "intelsat", "lat": 1.3714161531836448, "lon": -131.62854243158048, "alt_km": 35760.60528325932, "timestamp": "2025-12-08T15:42:49.446118+00:00", "meta": {"OBJECT_NAME": "GALAXY 17 (G-17)", "OBJECT_ID": "2007-016B", "EPOCH": "2025-12-08T06:09:03.889728", "MEAN_MOTION": 1.00272715, "ECCENTRICITY": 0.00061425, "INCLINATION": 2.4885, "RA_OF_ASC_NODE": 82.334, "ARG_OF_PERICENTER": 161.2511, "MEAN_ANOMALY": 200.9468, "EPHEMERIS_TYPE": 0, "CLASSIFICATION_TYPE": "U", "NORAD_CAT_ID": 31307, "ELEMENT_SET_NO": 999, "REV_AT_EPOCH": 6789, "BSTAR": 0, "MEAN_MOTION_DOT": -2.04e-06, "MEAN_MOTION_DDOT": 0}, "tle": {"line1": "1 31307U 07016B   25342.25629502 -.00000204  00000+0  00000+0 0  9990", "line2": "2 31307   2.4885  82.3340 0006142 161.2511 200.9468  1.00272715 67897"}}, "geometry": {"type": "Point", "coordinates": [-131.62854243158048, 1.3714161531836448]}}, {"type": "Feature", "properties": {"norad_id": 31862, "name": "DIRECTV 10", "group": "intelsat", "lat": 0.007523717366682359, "lon": -149.43765989034858, "alt_km": 35786.76267693407, "timestamp": "2025-12-08T15:42:49.446130+00:00", "meta": {"OBJECT_NAME": "DIRECTV 10", "OBJECT_ID": "2007-032A", "EPOCH": "2025-12-08T01:07:46.754688", "MEAN_MOTION": 1.00267088, "ECCENTRICITY": 2.741e-05, "INCLINATION": 0.0014, "RA_OF_ASC_NODE": 208.4476, "ARG_OF_PERICENTER": 58.5252, "MEAN_ANOMALY": 84.2468, "EPHEMERIS_TYPE": 0, "CLASSIFICATION_TYPE": "U", "NORAD_CAT_ID": 31862, "ELEMENT_SET_NO": 999, "REV_AT_EPOCH": 4367, "BSTAR": 0, "MEAN_MOTION_DOT": -1e-06, "MEAN_MOTION_DDOT": 0}, "tle": {"line1": "1 31862U 07032A   25342.04706892 -.00000100  00000+0  00000+0 0  9994", "line2": "2 31862   0.0014 208.4476 0000274  58.5252  84.2468  1.00267088 43672"}}, "geometry": {"type": "Point", "coordinates": [-149.43765989034858, 0.007523717366682359]}}, {"type": "Feature", "properties": {"norad_id": 32253, "name": "INTELSAT 11 (IS-11)", "group": "intelsat", "lat": 2.749052132082286, "lon": -163.01094629970564, "alt_km": 36106.33432483208, "timestamp": "2025-12-08T15:42:49.446142+00:00", "meta": {"OBJECT_NAME": "INTELSAT 11 (IS-11)", "OBJECT_ID": "2007-044B", "EPOCH": "2025-12-08T05:52:34.775616", "MEAN_MOTION": 0.9904751, "ECCENTRICITY": 0.00091782, "INCLINATION": 3.0683, "RA_OF_ASC_NODE": 81.0242, "ARG_OF_PERICENTER": 164.0141, "MEAN_ANOMALY": 165.8382, "EPHEMERIS_TYPE": 0, "CLASSIFICATION_TYPE": "U", "NORAD_CAT_ID": 32253, "ELEMENT_SET_NO": 999, "REV_AT_EPOCH": 6655, "BSTAR": 0, "MEAN_MOTION_DOT": 6.5e-07, "MEAN_MOTION_DDOT": 0}, "tle": {"line1": "1 32253U 07044B   25342.24484694  .00000065  00000+0  00000+0 0  9996", "line2": "2 32253   3.0683  81.0242 0009178 164.0141 165.8382  0.99047510 66556"}}, "geometry": {"type": "Point", "coordinates": [-163.01094629970564, 2.749052132082286]}}, {"type": "Feature", "properties": {"norad_id": 32388, "name": "HORIZONS-2", "group": "intelsat", "lat": 0.8180892326127184, "lon": -120.43183193126684, "alt_km": 35767.605576516355, "timestamp": "2025-12-08T15:42:49.446153+00:00", "meta": {"OBJECT_NAME": "HORIZONS-2", "OBJECT_ID": "2007-063B", "EPOCH": "2025-12-08T06:15:42.572160", "MEAN_MOTION": 1.0027076, "ECCENTRICITY": 0.00050619, "INCLINATION": 2.1097, "RA_OF_ASC_NODE": 83.0066, "ARG_OF_PERICENTER": 185.9005, "MEAN_ANOMALY": 188.5113, "EPHEMERIS_TYPE": 0, "CLASSIFICATION_TYPE": "U", "NORAD_CAT_ID": 32388, "ELEMENT_SET_NO": 999, "REV_AT_EPOCH": 6590, "BSTAR": 0, "MEAN_MOTION_DOT": -2.51e-06, "MEAN_MOTION_DDOT": 0}, "tle": {"line1": "1 32388U 07063B   25342.26090940 -.00000251  00000+0  00000+0 0  9993", "line2": "2 32388   2.1097  83.0066 0005061 185.9005 188.5113  1.00270760 65908"}}, "geometry": {"type": "Point", "coordinates": [-120.43183193126684, 0.8180892326127184]}}, {"type": "Feature", "properties": {"norad_id": 32729, "name": "DIRECTV 11", "group": "intelsat", "lat": -0.013635511597870848, "lon": -145.84123481253118, "alt_km": 35785.79477509936, "timestamp": "2025-12-08T15:42:49.446165+00:00", "meta": {"OBJECT_NAME": "DIRECTV 11", "OBJECT_ID": "2008-013A", "EPOCH": "2025-12-08T06:01:18.291360", "MEAN_MOTION": 1.00269109, "ECCENTRICITY": 2.506e-05, "INCLINATION": 0.006, "RA_OF_ASC_NODE": 275.0978, "ARG_OF_PERICENTER": 294.6796, "MEAN_ANOMALY": 218.6118, "EPHEMERIS_TYPE": 0, "CLASSIFICATION_TYPE": "U", "NORAD_CAT_ID": 32729, "ELEMENT_SET_NO": 999, "REV_AT_EPOCH": 4367, "BSTAR": 0, "MEAN_MOTION_DOT": -1.23e-06, "MEAN_MOTION_DDOT": 0}, "tle": {"line1": "1 32729U 08013A   25342.25090615 -.00000123  00000+0  00000+0 0  9994", "line2": "2 32729   0.0060 275.0978 0000250 294.6796 218.6118  1.00269109 43674"}}, "geometry": {"type": "Point", "coordinates": [-145.84123481253118, -0.013635511597870848]}}, {"type": "Feature", "properties": {"norad_id": 32951, "name": "GALAXY 18 (G-18)", "group": "intelsat", "lat": 0.008877129630593904, "lon": -169.6936634418858, "alt_km": 35782.05244335831, "timestamp": "2025-12-08T15:42:49.446177+00:00", "meta": {"OBJECT_NAME": "GALAXY 18 (G-18)", "OBJECT_ID": "2008-024A", "EPOCH": "2025-12-08T04:26:38.789088", "MEAN_MOTION": 1.00270153, "ECCENTRICITY": 0.00032868, "INCLINATION": 0.0243, "RA_OF_ASC_NODE": 63.9184, "ARG_OF_PERICENTER": 197.7349, "MEAN_ANOMALY": 119.1888, "EPHEMERIS_TYPE": 0, "CLASSIFICATION_TYPE": "U", "NORAD_CAT_ID": 32951, "ELEMENT_SET_NO": 999, "REV_AT_EPOCH": 4393, "BSTAR": 0, "MEAN_MOTION_DOT": 2.8e-07, "MEAN_MOTION_DDOT": 0}, "tle": {"line1": "1 32951U 08024A   25342.18517117  .00000028  00000+0  00000+0 0  9999", "line2": "2 32951   0.0243  63.9184 0003286 197.7349 119.1888  1.00270153 43935"}}, "geometry": {"type": "Point", "coordinates": [-169.6936634418858, 0.008877129630593904]}}]}